TOMORROW-S2             
1 60485U 24149T   26068.75188364  .00008133  00000+0  27683-3 0  9990
2 60485  97.3857 150.0385 0001648 234.3331 125.7757 15.30674935 86869
STARLINK-32344          
1 61719U 24196N   26068.81723542  .00000277  00000+0  21491-4 0  9996
2 61719  53.1596 100.9223 0001088  90.1575 269.9550 15.30191289 77173
