[{"OBJECT_NAME":"TOMORROW-S2","OBJECT_ID":"2024-149T","EPOCH":"2026-03-09T18:02:42.746496","MEAN_MOTION":15.30674935,"ECCENTRICITY":0.0001648,"INCLINATION":97.3857,"RA_OF_ASC_NODE":150.0385,"ARG_OF_PERICENTER":234.3331,"MEAN_ANOMALY":125.7757,"EPHEMERIS_TYPE":0,"CLASSIFICATION_TYPE":"U","NORAD_CAT_ID":60485,"ELEMENT_SET_NO":999,"REV_AT_EPOCH":8686,"BSTAR":0.00027683033,"MEAN_MOTION_DOT":8.133e-5,"MEAN_MOTION_DDOT":0},{"OBJECT_NAME":"STARLINK-32344","OBJECT_ID":"2024-196N","EPOCH":"2026-03-09T19:36:49.140288","MEAN_MOTION":15.30191289,"ECCENTRICITY":0.00010879,"INCLINATION":53.1596,"RA_OF_ASC_NODE":100.9223,"ARG_OF_PERICENTER":90.1575,"MEAN_ANOMALY":269.955,"EPHEMERIS_TYPE":0,"CLASSIFICATION_TYPE":"U","NORAD_CAT_ID":61719,"ELEMENT_SET_NO":999,"REV_AT_EPOCH":7717,"BSTAR":2.1491147e-5,"MEAN_MOTION_DOT":2.77e-6,"MEAN_MOTION_DDOT":0}]
